[{"OBJECT_NAME":"KINEIS-1C","OBJECT_ID":"2024-114C","EPOCH":"2026-03-10T00:10:11.544384","MEAN_MOTION":14.80409337,"ECCENTRICITY":0.00022495,"INCLINATION":97.9945,"RA_OF_ASC_NODE":93.4647,"ARG_OF_PERICENTER":117.2178,"MEAN_ANOMALY":242.9263,"EPHEMERIS_TYPE":0,"CLASSIFICATION_TYPE":"U","NORAD_CAT_ID":60081,"ELEMENT_SET_NO":999,"REV_AT_EPOCH":9270,"BSTAR":0.00020502578,"MEAN_MOTION_DOT":1.513e-5,"MEAN_MOTION_DDOT":0},{"OBJECT_NAME":"CZ-6A DEB","OBJECT_ID":"2022-151HF","EPOCH":"2026-03-09T15:40:31.564704","MEAN_MOTION":14.6307504,"ECCENTRICITY":0.00824297,"INCLINATION":98.632,"RA_OF_ASC_NODE":122.0817,"ARG_OF_PERICENTER":262.3515,"MEAN_ANOMALY":96.8318,"EPHEMERIS_TYPE":0,"CLASSIFICATION_TYPE":"U","NORAD_CAT_ID":54479,"ELEMENT_SET_NO":999,"REV_AT_EPOCH":17513,"BSTAR":0.001762624,"MEAN_MOTION_DOT":9.458e-5,"MEAN_MOTION_DDOT":0}]
